NORAD_CAT_ID,OBJECT_NAME,OBJECT_TYPE,EPOCH,MEAN_MOTION,ECCENTRICITY,INCLINATION,RA_OF_ASC_NODE,ARG_OF_PERICENTER,MEAN_ANOMALY,BSTAR,MEAN_MOTION_DOT,MEAN_MOTION_DDOT,TLE_LINE0,TLE_LINE1,TLE_LINE2,SEMIMAJOR_AXIS,PERIOD,APOGEE,PERIGEE,DECAYED
54078.0,STARLINK-5138,PAYLOAD,2023-10-13 04:52:56,15.08845903,0.0001775,53.2157,307.7503,104.6507,255.4682,0.00026199,3.885e-05,0.0,0 STARLINK-5138,1 54078U 22136AD  23286.20343036  .00003885  00000-0  26199-3 0  9994,2 54078  53.2157 307.7503 0001775 104.6507 255.4682 15.08845903 54988,6917.862,95.437,540.955,538.499,0.0
54078.0,STARLINK-5138,PAYLOAD,2023-10-13 08:03:42,15.08851887,0.0001687,53.216,307.1543,105.0647,255.0532,0.00048254,7.402e-05,0.0,0 STARLINK-5138,1 54078U 22136AD  23286.33590880  .00007402  00000-0  48254-3 0  9994,2 54078  53.2160 307.1543 0001687 105.0647 255.0532 15.08851887 54520,6917.844,95.437,540.876,538.542,0.0
54078.0,STARLINK-5138,PAYLOAD,2023-10-14 04:43:43,15.08848974,0.0001702,53.216,303.2893,95.3931,264.7256,0.00063873,9.894e-05,0.0,0 STARLINK-5138,1 54078U 22136AD  23287.19703009  .00009894  00000-0  63873-3 0  9999,2 54078  53.2160 303.2893 0001702  95.3931 264.7256 15.08848974 55131,6917.853,95.437,540.895,538.541,0.0
54078.0,STARLINK-5138,PAYLOAD,2023-10-14 07:54:29,15.08850625,0.0001736,53.2159,302.6947,89.5833,270.5358,0.00028345,4.227e-05,0.0,0 STARLINK-5138,1 54078U 22136AD  23287.32950890  .00004227  00000-0  28345-3 0  9996,2 54078  53.2159 302.6947 0001736  89.5833 270.5358 15.08850625 54677,6917.848,95.437,540.914,538.512,0.0
54078.0,STARLINK-5138,PAYLOAD,2023-10-15 04:34:31,15.08831016,0.0002191,53.2168,298.8271,123.0056,237.1146,-4.6941e-05,-1.035e-05,0.0,0 STARLINK-5138,1 54078U 22136AD  23288.19063778 -.00001035  00000-0 -46941-4 0  9991,2 54078  53.2168 298.8271 0002191 123.0056 237.1146 15.08831016 55285,6917.908,95.438,541.289,538.257,0.0
54078.0,STARLINK-5138,PAYLOAD,2023-10-15 07:45:17,15.08829784,0.0001475,53.2158,298.2327,96.2733,263.8427,-2.1089e-05,-6.23e-06,0.0,0 STARLINK-5138,1 54078U 22136AD  23288.32311961 -.00000623  00000-0 -21089-4 0  9994,2 54078  53.2158 298.2327 0001475  96.2733 263.8427 15.08829784 54823,6917.912,95.438,540.797,538.756,0.0
54078.0,STARLINK-5138,PAYLOAD,2023-10-15 17:17:36,15.08833689,0.0001614,53.2176,296.4509,100.2766,259.8408,9.814e-05,1.274e-05,0.0,0 STARLINK-5138,1 54078U 22136AD  23288.72056148  .00001274  00000-0  98140-4 0  9994,2 54078  53.2176 296.4509 0001614 100.2766 259.8408 15.08833689 54881,6917.9,95.438,540.881,538.648,0.0
54078.0,STARLINK-5138,PAYLOAD,2023-10-16 07:36:04,15.08849536,0.0001519,53.217,293.7747,96.2052,263.9114,0.00039891,6.068e-05,0.0,0 STARLINK-5138,1 54078U 22136AD  23289.31671755  .00006068  00000-0  39891-3 0  9990,2 54078  53.2170 293.7747 0001519  96.2052 263.9114 15.08849536 55457,6917.851,95.437,540.767,538.665,0.0
54078.0,STARLINK-5138,PAYLOAD,2023-10-17 01:05:19,15.08844015,0.000153,53.2168,290.5044,100.0687,260.0478,0.00024027,3.538e-05,0.0,0 STARLINK-5138,1 54078U 22136AD  23290.04535996  .00003538  00000-0  24027-3 0  9992,2 54078  53.2168 290.5044 0001530 100.0687 260.0478 15.08844015 55560,6917.868,95.437,540.792,538.675,0.0
54078.0,STARLINK-5138,PAYLOAD,2023-10-17 09:02:14,15.08847242,0.0001514,53.2168,289.0176,100.7223,259.3939,0.0002239,3.278e-05,0.0,0 STARLINK-5138,1 54078U 22136AD  23290.37655797  .00003278  00000-0  22390-3 0  9992,2 54078  53.2168 289.0176 0001514 100.7223 259.3939 15.08847242 55135,6917.858,95.437,540.771,538.676,0.0
54078.0,STARLINK-5138,PAYLOAD,2023-10-17 16:59:10,15.08842966,0.0001518,53.2168,287.5305,99.1127,261.0037,7.927e-05,9.74e-06,0.0,0 STARLINK-5138,1 54078U 22136AD  23290.70775865  .00000974  00000-0  79270-4 0  9998,2 54078  53.2168 287.5305 0001518  99.1127 261.0037 15.08842966 55182,6917.871,95.437,540.786,538.686,0.0
54078.0,STARLINK-5138,PAYLOAD,2023-10-18 05:42:15,15.08845474,0.0001629,53.2174,285.1529,97.7642,262.3535,6.114e-05,6.85e-06,0.0,0 STARLINK-5138,1 54078U 22136AD  23291.23767852  .00000685  00000-0  61140-4 0  9990,2 54078  53.2174 285.1529 0001629  97.7642 262.3535 15.08845474 55746,6917.864,95.437,540.856,538.602,0.0
54078.0,STARLINK-5138,PAYLOAD,2023-10-18 23:11:30,15.08842727,0.0001553,53.2163,281.8797,90.7476,269.3694,9.1201e-05,1.164e-05,0.0,0 STARLINK-5138,1 54078U 22136AD  23291.96632044  .00001164  00000-0  91201-4 0  9998,2 54078  53.2163 281.8797 0001553  90.7476 269.3694 15.08842727 55378,6917.872,95.437,540.811,538.663,0.0
54078.0,STARLINK-5138,PAYLOAD,2023-10-19 05:33:02,15.08841674,0.0001484,53.2162,280.6903,95.8824,264.2338,7.9923e-05,9.84e-06,0.0,0 STARLINK-5138,1 54078U 22136AD  23292.23128059  .00000984  00000-0  79923-4 0  9991,2 54078  53.2162 280.6903 0001484  95.8824 264.2338 15.08841674 55895,6917.875,95.437,540.767,538.714,0.0
54078.0,STARLINK-5138,PAYLOAD,2023-10-19 08:43:48,15.08850522,0.0001522,53.2167,280.0938,95.5978,264.5188,0.00020908,3.042e-05,0.0,0 STARLINK-5138,1 54078U 22136AD  23292.36375570  .00003042  00000-0  20908-3 0  9993,2 54078  53.2167 280.0938 0001522  95.5978 264.5188 15.08850522 55913,6917.848,95.437,540.766,538.66,0.0
54078.0,STARLINK-5138,PAYLOAD,2023-10-19 16:40:44,15.08843839,0.0001683,53.2166,278.6063,105.0473,255.0705,0.00015665,2.206e-05,0.0,0 STARLINK-5138,1 54078U 22136AD  23292.69495971  .00002206  00000-0  15665-3 0  9992,2 54078  53.2166 278.6063 0001683 105.0473 255.0705 15.08843839 55967,6917.869,95.437,540.898,538.569,0.0
54078.0,STARLINK-5138,PAYLOAD,2023-10-20 08:34:35,15.08855775,0.0001703,53.2172,275.6337,96.3994,263.7192,0.00023464,3.45e-05,0.0,0 STARLINK-5138,1 54078U 22136AD  23293.35735178  .00003450  00000-0  23464-3 0  9990,2 54078  53.2172 275.6337 0001703  96.3994 263.7192 15.08855775 56068,6917.832,95.437,540.875,538.519,0.0
54078.0,STARLINK-5138,PAYLOAD,2023-10-20 22:53:05,15.08819082,0.0001493,53.2179,272.9565,111.7584,248.3567,-0.00025441,-4.332e-05,0.0,0 STARLINK-5138,1 54078U 22136AD  23293.95353512 -.00004332  00000-0 -25441-3 0  9993,2 54078  53.2179 272.9565 0001493 111.7584 248.3567 15.08819082 55673,6917.944,95.439,540.842,538.776,0.0
54078.0,STARLINK-5138,PAYLOAD,2023-10-21 02:03:51,15.0881966,0.0001639,53.2179,272.3618,110.8566,249.2602,-0.00022206,-3.818e-05,0.0,0 STARLINK-5138,1 54078U 22136AD  23294.08601668 -.00003818  00000-0 -22206-3 0  9990,2 54078  53.2179 272.3618 0001639 110.8566 249.2602 15.08819660 56176,6917.943,95.439,540.941,538.674,0.0
54078.0,STARLINK-5138,PAYLOAD,2023-10-21 05:14:38,15.08818989,0.000161,53.2164,271.7666,103.8216,256.2955,-0.00018417,-3.216e-05,0.0,0 STARLINK-5138,1 54078U 22136AD  23294.21849927 -.00003216  00000-0 -18417-3 0  9998,2 54078  53.2164 271.7666 0001610 103.8216 256.2955 15.08818989 55710,6917.945,95.439,540.923,538.696,0.0
54078.0,STARLINK-5138,PAYLOAD,2023-10-21 22:43:52,15.08838833,0.0001521,53.2176,268.4969,100.928,259.1883,0.00013729,1.898e-05,0.0,0 STARLINK-5138,1 54078U 22136AD  23294.94713191  .00001898  00000-0  13729-3 0  9994,2 54078  53.2176 268.4969 0001521 100.9280 259.1883 15.08838833 55826,6917.884,95.438,540.801,538.697,0.0
54078.0,STARLINK-5138,PAYLOAD,2023-10-22 05:05:23,15.08860752,0.0001523,53.2167,267.3064,101.3425,258.7738,0.00041193,6.278e-05,0.0,0 STARLINK-5138,1 54078U 22136AD  23295.21208113  .00006278  00000-0  41193-3 0  9991,2 54078  53.2167 267.3064 0001523 101.3425 258.7738 15.08860752 56345,6917.817,95.436,540.736,538.628,0.0
54078.0,STARLINK-5138,PAYLOAD,2023-10-22 08:16:09,15.0886328,0.0001549,53.2166,266.713,98.4516,261.6652,0.00046029,7.05e-05,0.0,0 STARLINK-5138,1 54078U 22136AD  23295.34455907  .00007050  00000-0  46029-3 0  9992,2 54078  53.2166 266.7130 0001549  98.4516 261.6652 15.08863280 55881,6917.809,95.436,540.746,538.603,0.0
54078.0,STARLINK-5138,PAYLOAD,2023-10-23 04:56:11,15.08847649,0.0001425,53.2175,262.8481,90.1879,269.9277,0.00015273,2.144e-05,0.0,0 STARLINK-5138,1 54078U 22136AD  23296.20569168  .00002144  00000-0  15273-3 0  9999,2 54078  53.2175 262.8481 0001425  90.1879 269.9277 15.08847649 56494,6917.857,95.437,540.708,538.736,0.0
54078.0,STARLINK-5138,PAYLOAD,2023-10-23 14:28:30,15.0884467,0.0001264,53.2165,261.0641,92.8874,267.2263,-1.8325e-05,-5.8e-06,0.0,0 STARLINK-5138,1 54078U 22136AD  23296.60312975 -.00000580  00000-0 -18325-4 0  9991,2 54078  53.2165 261.0641 0001264  92.8874 267.2263 15.08844670 56078,6917.866,95.437,540.606,538.857,0.0
54078.0,STARLINK-5138,PAYLOAD,2023-10-24 14:19:17,15.08850011,0.0001385,53.2166,256.6039,85.9959,274.1191,0.00014096,1.957e-05,0.0,0 STARLINK-5138,1 54078U 22136AD  23297.59672535  .00001957  00000-0  14096-3 0  9998,2 54078  53.2166 256.6039 0001385  85.9959 274.1191 15.08850011 56221,6917.85,95.437,540.673,538.757,0.0
54078.0,STARLINK-5138,PAYLOAD,2023-10-25 06:13:08,15.08840904,0.0001784,53.218,253.6305,88.3736,271.7461,0.00013015,1.784e-05,0.0,0 STARLINK-5138,1 54078U 22136AD  23298.25913050  .00001784  00000-0  13015-3 0  9990,2 54078  53.2180 253.6305 0001784  88.3736 271.7461 15.08840904 56800,6917.878,95.437,540.977,538.508,0.0
54078.0,STARLINK-5138,PAYLOAD,2023-10-26 06:03:55,15.08851734,0.0001686,53.2181,249.1677,93.4572,266.6613,0.00015452,2.173e-05,0.0,0 STARLINK-5138,1 54078U 22136AD  23299.25272309  .00002173  00000-0  15452-3 0  9996,2 54078  53.2181 249.1677 0001686  93.4572 266.6613 15.08851734 56477,6917.845,95.437,540.876,538.543,0.0
54078.0,STARLINK-5138,PAYLOAD,2023-10-27 04:19:18,15.08853871,0.0001505,53.217,245.0052,89.4737,270.6428,0.00022109,3.234e-05,0.0,0 STARLINK-5138,1 54078U 22136AD  23300.18008050  .00003234  00000-0  22109-3 0  9997,2 54078  53.2170 245.0052 0001505  89.4737 270.6428 15.08853871 57097,6917.838,95.437,540.744,538.662,0.0
54078.0,STARLINK-5138,PAYLOAD,2023-10-27 13:51:37,15.08845387,0.0001768,53.2178,243.2204,89.2981,270.8214,0.00010331,1.357e-05,0.0,0 STARLINK-5138,1 54078U 22136AD  23300.57752269  .00001357  00000-0  10331-3 0  9996,2 54078  53.2178 243.2204 0001768  89.2981 270.8214 15.08845387 56675,6917.864,95.437,540.952,538.506,0.0
